OBJECT_NAME,OBJECT_ID,EPOCH,MEAN_MOTION,ECCENTRICITY,INCLINATION,RA_OF_ASC_NODE,ARG_OF_PERICENTER,MEAN_ANOMALY,EPHEMERIS_TYPE,CLASSIFICATION_TYPE,NORAD_CAT_ID,ELEMENT_SET_NO,REV_AT_EPOCH,BSTAR,MEAN_MOTION_DOT,MEAN_MOTION_DDOT
NETSAT-1,2020-068W,2026-06-19T11:35:06.578592,15.34687263,.00047818,97.8748,171.4257,25.4867,334.6610,0,U,46506,999,31565,.30210764E-3,.10074E-3,0
NETSAT-2,2020-068X,2026-06-19T13:25:58.285632,15.46083868,.00031486,97.8616,178.8939,19.0109,341.1256,0,U,46507,999,31610,.393457E-3,.19174E-3,0
TIANQI-6,2020-076D,2026-06-19T17:18:56.302272,15.07196627,.0010317,35.0001,32.9103,197.3892,162.6465,0,U,46810,999,30896,.18683E-3,.2845E-4,0
KSM1-C,2020-081B,2026-06-19T20:11:12.323904,15.26774553,.0003415,36.8964,42.5575,264.1324,95.9036,0,U,46906,999,30957,.249E-3,.6616E-4,0
KSM1-D,2020-081C,2026-06-19T20:18:43.648992,15.24750480,.0005198,36.8969,51.5869,279.6788,80.3374,0,U,46907,999,30950,.23525E-3,.5871E-4,0
KSM1-A,2020-081H,2026-06-19T20:17:48.278688,15.25991934,.000434,36.8976,44.9419,319.1373,40.9050,0,U,46912,999,30958,.24023E-3,.6228E-4,0
R2,2020-081J,2026-06-19T17:41:21.881184,15.25457509,.0009054,36.8983,45.6048,301.8334,58.1533,0,U,46913,999,31237,.2418E-3,.6173E-4,0
KSM1-B,2020-081K,2026-06-19T20:24:14.285376,15.24539587,.0006809,36.9024,52.1740,298.3419,61.6642,0,U,46914,999,31259,.23698E-3,.5879E-4,0
GONETS-M 20,2020-091A,2026-06-19T19:45:44.250048,12.42893865,.0021344,82.5054,300.7969,172.1907,187.9509,0,U,47227,999,25140,.5836E-3,.91E-6,0
GONETS-M 21,2020-091B,2026-06-19T19:08:06.995616,12.42886995,.0014915,82.4979,299.5185,185.1011,174.9919,0,U,47228,999,25139,.58954E-3,.92E-6,0
GONETS-M 22,2020-091C,2026-06-19T20:25:16.779360,12.42893142,.0022267,82.5036,300.3851,167.5988,192.5645,0,U,47229,999,25135,.69627E-3,.106E-5,0
CUBEL,2021-006AM,2026-06-19T16:39:13.353120,15.41311753,.000745,97.2322,221.2537,154.4400,205.7217,0,U,47448,999,30014,.39426E-3,.16371E-3,0
ARKTIKA-M 1,2021-016A,2026-06-17T11:46:36.471360,2.00622504,.72885287,63.2922,57.5948,269.9420,14.6012,0,U,47719,999,3879,0,-.21E-5,0
STARLINK-2342,2021-021Z,2026-06-19T20:00:01.999008,15.81839892,.0001832,53.1545,134.8021,139.9239,238.8611,0,U,47883,999,597,.78952E-3,.165408E-2,0
GRUS-1B,2021-022C,2026-06-19T21:56:17.477952,14.98887604,.0015306,97.5394,54.0244,317.7682,42.2362,0,U,47934,999,28630,.15981E-4,.136E-5,0
2021-022F,2021-022F,2026-06-19T20:39:51.512832,15.33083327,.0011649,97.3886,71.5554,84.9138,275.3433,0,U,47937,999,29012,.22307E-3,.7064E-4,0
UNISAT-7,2021-022P,2026-06-19T16:37:33.384864,15.40524400,.0010968,97.3883,75.6430,71.3171,288.9265,0,U,47945,999,29024,.30051E-3,.12142E-3,0
2021-022X,2021-022X,2026-06-18T14:09:11.723328,15.74842505,.0006518,97.3906,86.7058,80.8430,279.3572,0,U,47953,999,29072,.60453E-3,.89738E-3,0
GLOBAL-9,2021-023G,2026-06-18T13:05:01.779936,15.46654442,.0004632,44.9804,242.8949,324.7391,35.3192,0,U,47971,999,29515,.33668E-3,.16855E-3,0
AII-BRAVO,2021-034C,2026-06-19T16:24:11.411424,15.03498600,.0004066,97.5627,225.5375,246.3698,113.7101,0,U,48270,999,27999,.23538E-3,.315E-4,0
TYVAK-182A,2021-034D,2026-06-19T17:19:33.448224,15.06182474,.0004899,97.5710,229.5952,331.6538,28.4421,0,U,48271,999,28021,.29973E-3,.433E-4,0
CSS (TIANHE),2021-035A,2026-06-19T17:28:49.104768,15.60907257,.000735,41.4696,306.5363,99.2772,260.8898,0,U,48274,999,29356,.23343E-3,.19835E-3,0
TYVAK-0130,2021-041BF,2026-06-19T17:27:58.341312,15.27587016,.0010247,52.9940,14.2875,170.4227,189.6967,0,U,48606,999,28077,.20922E-3,.5377E-4,0
HAIYANG-2D,2021-043A,2026-06-19T19:44:50.022816,13.83370647,.001146,66.0001,298.1374,268.5956,91.3799,0,U,48621,999,25691,.16933E-4,-.63E-6,0
2021-050D,2021-050D,2026-06-19T19:57:43.526592,15.23347725,.0004057,97.3329,246.8076,249.4794,110.6008,0,U,48843,999,27936,.13603E-3,.3162E-4,0
TYVAK-0173,2021-059P,2026-06-19T16:42:24.951168,14.81897455,.0009848,96.0086,246.4293,32.1935,327.9882,0,U,48892,999,26861,.16279E-3,.1257E-4,0
MANDRAKE 2 ABLE,2021-059AE,2026-06-19T11:46:23.236608,15.55068742,.00042086,97.7033,0.4503,357.5299,2.5933,0,U,48907,999,27748,.27827257E-3,.18617E-3,0
MANDRAKE 2 BAKER,2021-059AF,2026-06-19T11:30:37.503072,15.59664496,.00027034,97.7005,3.3257,357.4124,2.7118,0,U,48908,999,27765,.30157054E-3,.23971E-3,0
PACE-1,2021-059AG,2026-06-19T11:56:26.166912,15.80204733,.00013356,97.6758,8.8992,261.3769,98.7346,0,U,48909,999,27816,.40737798E-3,.76419E-3,0
YAM-3,2021-059AN,2026-06-19T06:20:30.002496,15.48595720,.00047138,97.6996,357.3547,3.1999,356.9280,0,U,48915,999,27731,.18976455E-3,.10028E-3,0
FARADAY_PHOENIX,2021-059AX,2026-06-19T11:56:58.160832,15.79019110,.00032797,97.6806,8.7823,282.3293,77.7606,0,U,48924,999,27802,.67159411E-3,.120145E-2,0
DEMO8 (TENZING),2021-059CA,2026-06-19T11:50:40.955712,15.55067198,.00059943,97.7026,4.0879,346.4800,13.6291,0,U,48951,999,27766,.24098395E-3,.16108E-3,0
NAPA-2,2021-059CN,2026-06-19T00:09:38.891232,16.02141287,.00035057,97.6622,9.4637,235.5347,124.5601,0,U,48963,999,27810,.67912093E-3,.388539E-2,.68392004E-4
FENGYUN 3E,2021-062A,2026-06-19T19:24:55.312992,14.19902881,.0002871,98.7492,174.1880,81.8036,278.3465,0,U,49008,999,25695,-.18037E-3,-.427E-5,0
ISS (NAUKA),2021-066A,2026-06-19T20:01:06.424896,15.49322400,.0004571,51.6327,286.9925,206.3214,153.7542,0,U,49044,999,57189,.16559E-3,.8787E-4,0
STARLINK-3100,2021-082Q,2026-06-19T17:03:22.453920,14.98330879,.0003064,69.9998,37.2168,268.9598,91.1210,0,U,49144,999,26126,.21178E-4,.16E-5,0
CUTE,2021-088D,2026-06-19T12:16:02.715456,15.93770363,.00074752,97.4176,270.0311,225.0755,134.9914,0,U,49263,999,26292,.37480835E-3,.13495E-2,.9067552E-5
2021-091B,2021-091B,2026-06-19T19:51:41.179680,15.18564875,.0014445,97.4472,358.3616,37.1760,323.0472,0,U,49316,999,25938,.10486E-3,.2104E-4,0
SDGSAT 1,2021-100A,2026-06-19T20:45:50.562720,15.19119509,.0007736,97.2622,217.7139,261.4114,98.6245,0,U,49387,999,25632,.88047E-4,.1784E-4,0
TEIKYOSAT-4 (OORURI),2021-102B,2026-06-19T15:21:03.320928,15.09515149,.0010361,97.3669,200.0277,286.9508,73.0586,0,U,49396,999,25309,.92997E-4,.1431E-4,0
Z-SAT,2021-102E,2026-06-19T20:01:19.291584,15.18278498,.0015184,97.3318,206.0771,234.4088,125.5732,0,U,49399,999,25384,.15693E-3,.3158E-4,0
HIBARI,2021-102F,2026-06-19T16:25:32.617056,15.31771267,.0011738,97.3232,216.5589,182.7230,177.3949,0,U,49400,999,25457,.28905E-3,.8809E-4,0
KOSEN-1,2021-102H,2026-06-19T13:35:45.710592,15.26861896,.00134596,97.3181,212.6776,191.8162,168.2764,0,U,49402,999,25438,.22162614E-3,.579E-4,0
GLOBAL-14,2021-106A,2026-06-19T08:10:03.241056,15.50686613,.00154485,42.0036,278.2839,34.8288,325.3565,0,U,49469,999,25846,.38295685E-3,.22421E-3,0
GAOFEN-3 02,2021-109A,2026-06-19T19:46:35.929344,14.42216398,.0002734,98.4085,178.8835,11.2151,348.9099,0,U,49495,999,24069,-.64311E-4,-.255E-5,0
GLOBAL-12,2021-115BA,2026-06-19T07:48:00.811296,15.53715008,.00030234,53.1954,34.2612,70.8420,289.2918,0,U,49772,999,25623,.45571056E-3,.29311E-3,0
GLOBAL-13,2021-115BB,2026-06-19T09:10:29.552736,15.46112158,.00036342,53.1982,44.1522,115.0563,245.0823,0,U,49773,999,25610,.36541292E-3,.17795E-3,0
GLOBAL-17,2021-120A,2026-06-19T08:10:29.192160,15.52347928,.00158218,41.9963,36.4619,270.3113,89.5918,0,U,49949,999,25523,.39784301E-3,.24767E-3,0
GLOBAL-16,2021-120B,2026-06-19T08:33:59.954688,15.50259008,.00137683,41.9964,40.1356,262.3846,97.5434,0,U,49950,999,25518,.36243974E-3,.20855E-3,0
XW-3 (CAS-9),2021-131B,2026-06-19T19:57:10.983168,14.41359619,.0005403,98.4983,263.2068,90.7607,269.4201,0,U,50466,999,23549,.15264E-3,.45E-5,0
ION SCV-004,2022-002K,2026-06-19T18:49:49.128096,15.30472940,.0006851,97.2829,228.3944,358.4093,1.7125,0,U,50993,999,24569,.1464E-3,.4241E-4,0
ETV-A1,2022-002CE,2026-06-19T20:54:53.140032,15.40727094,.0004227,97.2872,237.1692,352.9981,7.1206,0,U,51060,999,24625,.22109E-3,.8953E-4,0
BRO-5,2022-002CF,2026-06-19T20:06:08.502624,15.47484869,.0003641,97.2991,244.5303,316.4023,43.6939,0,U,51061,999,24666,.47825E-3,.24507E-3,0
LUDI TANCE 1-01A (L-SAR 01A),2022-007A,2026-06-19T20:53:06.099072,14.88409587,.000161,97.8104,178.2521,90.8430,269.2972,0,U,51284,999,23887,.52803E-4,.435E-5,0
LUDI TANCE 1-01B (L-SAR 01B),2022-018A,2026-06-19T20:04:40.072224,14.88420945,.0001603,97.8109,178.2156,91.7869,268.3532,0,U,51822,999,23410,.54825E-4,.454E-5,0
2022-019D,2022-019D,2026-06-18T21:45:40.423968,15.71307563,.0004961,97.3660,262.4860,140.9998,219.1623,0,U,51827,999,23997,.52326E-3,.66613E-3,0
2022-019J,2022-019J,2026-06-19T20:08:12.579936,15.20448390,.0007617,97.3423,233.5812,210.7688,149.3102,0,U,51832,999,23820,.88825E-4,.1872E-4,0
2022-023F,2022-023F,2026-06-19T06:03:49.188960,15.17921566,.01306831,63.4449,266.4595,342.3865,17.2735,0,U,51951,999,23802,.4109595E-3,.10245E-3,0
CZ-4C R/B,2022-027B,2026-06-19T17:24:43.659648,13.65480192,.0232768,63.3945,52.1665,22.6310,338.4791,0,U,52085,999,21238,.52059E-5,-.9E-6,0
MERIDIAN 10,2022-030A,2026-06-19T11:05:54.687264,2.00613348,.6784583,62.6773,140.5490,272.8540,17.6395,0,U,52145,999,3107,0,.177E-5,0
OMNI-L1,2022-033A,2026-06-19T11:21:33.264288,14.82756210,.00038028,97.8397,249.6061,277.8304,82.2478,0,U,52157,999,22779,.19275983E-3,.1505E-4,0
ENMAP,2022-033C,2026-06-19T19:28:05.117376,14.74990485,.0001394,97.9791,253.0243,86.5515,273.5853,0,U,52159,999,22704,.89359E-4,.551E-5,0
ARCSAT-1,2022-033E,2026-06-19T19:56:08.797632,15.53676389,.0005277,97.2748,263.1429,169.5852,190.5512,0,U,52161,999,23611,.20995E-3,.13327E-3,0
GLOBAL-18,2022-034B,2026-06-19T06:12:11.293920,15.46355346,.00031932,52.9810,246.7400,291.3811,68.6854,0,U,52196,999,23728,.33379326E-3,.16355E-3,0
GAOFEN-3 03,2022-035A,2026-06-19T20:47:05.802432,14.42214553,.0001352,98.4059,179.4077,101.3920,258.7421,0,U,52200,999,22123,-.47196E-4,-.199E-5,0
DAQI-1,2022-039A,2026-06-19T19:44:18.943008,14.57678490,.0002298,98.1488,109.6203,239.8801,120.2170,0,U,52257,999,22232,.31502E-4,.99E-6,0
BRO-6,2022-047AE,2026-06-19T20:21:17.079840,15.50701558,.0004804,97.3395,261.9547,70.6745,289.5025,0,U,52422,999,23156,.53578E-3,.3077E-3,0
